{
    "links": {
        "self": "http://www.neowsapp.com/rest/v1/neo/3313729?api_key=iIulBulltgU6a56xZRHN4H3l9WmuAYTsLGpBGhQ2"
    },
    "id": "3313729",
    "neo_reference_id": "3313729",
    "name": "(2006 BU7)",
    "designation": "2006 BU7",
    "nasa_jpl_url": "http://ssd.jpl.nasa.gov/sbdb.cgi?sstr=3313729",
    "absolute_magnitude_h": 26.3,
    "estimated_diameter": {
        "kilometers": {
            "estimated_diameter_min": 0.0146067964,
            "estimated_diameter_max": 0.0326617897
        },
        "meters": {
            "estimated_diameter_min": 14.6067964271,
            "estimated_diameter_max": 32.6617897446
        },
        "miles": {
            "estimated_diameter_min": 0.0090762397,
            "estimated_diameter_max": 0.020295089
        },
        "feet": {
            "estimated_diameter_min": 47.92256199,
            "estimated_diameter_max": 107.1581062656
        }
    },
    "is_potentially_hazardous_asteroid": false,
    "close_approach_data": [
        {
            "close_approach_date": "2006-01-20",
            "close_approach_date_full": "2006-Jan-20 01:51",
            "epoch_date_close_approach": 1137721860000,
            "relative_velocity": {
                "kilometers_per_second": "4.3916860691",
                "kilometers_per_hour": "15810.0698487537",
                "miles_per_hour": "9823.7625679659"
            },
            "miss_distance": {
                "astronomical": "0.0665883355",
                "lunar": "25.9028625095",
                "kilometers": "9961473.157645385",
                "miles": "6189772.396600913"
            },
            "orbiting_body": "Earth"
        }
    ],
    "orbital_data": {
        "orbit_id": "8",
        "orbit_determination_date": "2017-04-06 09:09:21",
        "first_observation_date": "2006-01-22",
        "last_observation_date": "2006-01-27",
        "data_arc_in_days": 5,
        "observations_used": 23,
        "orbit_uncertainty": "7",
        "minimum_orbit_intersection": ".0666616",
        "jupiter_tisserand_invariant": "5.361",
        "epoch_osculation": "2459000.5",
        "eccentricity": ".1078939884700746",
        "semi_major_axis": "1.175886983806894",
        "inclination": "8.240927027031514",
        "ascending_node_longitude": "121.7976608055528",
        "orbital_period": "465.7434988921057",
        "perihelion_distance": "1.049015847133922",
        "perihelion_argument": "348.5384330669029",
        "aphelion_distance": "1.302758120479866",
        "perihelion_time": "2458865.579117909971",
        "mean_anomaly": "104.2881278385009",
        "mean_motion": ".7729576491273746",
        "equinox": "J2000",
        "orbit_class": {
            "orbit_class_type": "AMO",
            "orbit_class_description": "Near-Earth asteroid orbits similar to that of 1221 Amor",
            "orbit_class_range": "1.017 AU < q (perihelion) < 1.3 AU"
        }
    },
    "is_sentry_object": false
}